{"type": "FeatureCollection", "features": [ {"type": "Feature", "properties": {"norad_id": 66875, "name": "STARLINK-36053", "group": "last-30-days", "lat": -19.98926137346435, "lon": 97.93714417253153, "alt_km": 299.64352678231626, "timestamp": "2025-12-12T22:42:11.308176+00:00", "meta": {"OBJECT_NAME": "STARLINK-36053", "OBJECT_ID": "2025-281AD", "EPOCH": "2025-12-12T06:00:00.999648", "MEAN_MOTION": 15.933762, "ECCENTRICITY": 0.00017508, "INCLINATION": 43.0012, "RA_OF_ASC_NODE": 125.2459, "ARG_OF_PERICENTER": 265.2946, "MEAN_ANOMALY": 30.195, "EPHEMERIS_TYPE": 0, "CLASSIFICATION_TYPE": "U", "NORAD_CAT_ID": 66875, "ELEMENT_SET_NO": 999, "REV_AT_EPOCH": 135, "BSTAR": -0.0041304155, "MEAN_MOTION_DOT": -0.01522065, "MEAN_MOTION_DDOT": 0.00066061652}, "tle": {"line1": "1 66875U 25281AD  25346.25001157 -.01522065  66062-3 -41304-2 0  9991", "line2": "2 66875  43.0012 125.2459 0001750 265.2946  30.1950 15.93376200  1352"}}, "geometry": {"type": "Point", "coordinates": [97.93714417253153, -19.98926137346435]}}, {"type": "Feature", "properties": {"norad_id": 66876, "name": "STARLINK-35702", "group": "last-30-days", "lat": -23.04548429756467, "lon": 93.76483712332166, "alt_km": 299.9290869800916, "timestamp": "2025-12-12T22:42:11.308186+00:00", "meta": {"OBJECT_NAME": "STARLINK-35702", "OBJECT_ID": "2025-281AE", "EPOCH": "2025-12-12T06:00:00.999648", "MEAN_MOTION": 15.93299415, "ECCENTRICITY": 0.0001838, "INCLINATION": 43.0015, "RA_OF_ASC_NODE": 125.2588, "ARG_OF_PERICENTER": 265.6841, "MEAN_ANOMALY": 25.0348, "EPHEMERIS_TYPE": 0, "CLASSIFICATION_TYPE": "U", "NORAD_CAT_ID": 66876, "ELEMENT_SET_NO": 999, "REV_AT_EPOCH": 135, "BSTAR": -0.0041288829, "MEAN_MOTION_DOT": -0.01515442, "MEAN_MOTION_DDOT": 0.00065484982}, "tle": {"line1": "1 66876U 25281AE  25346.25001157 -.01515442  65485-3 -41289-2 0  9993", "line2": "2 66876  43.0015 125.2588 0001838 265.6841  25.0348 15.93299415  1350"}}, "geometry": {"type": "Point", "coordinates": [93.76483712332166, -23.04548429756467]}}, {"type": "Feature", "properties": {"norad_id": 66877, "name": "ZQ-3 R/B", "group": "last-30-days", "lat": -25.160060126256273, "lon": 39.08363692972006, "alt_km": 843.193742755434, "timestamp": "2025-12-12T22:42:11.308196+00:00", "meta": {"OBJECT_NAME": "ZQ-3 R/B", "OBJECT_ID": "2025-282A", "EPOCH": "2025-12-11T15:34:54.456096", "MEAN_MOTION": 14.56097159, "ECCENTRICITY": 0.07931712, "INCLINATION": 56.9524, "RA_OF_ASC_NODE": 61.8427, "ARG_OF_PERICENTER": 218.0596, "MEAN_ANOMALY": 136.1784, "EPHEMERIS_TYPE": 0, "CLASSIFICATION_TYPE": "U", "NORAD_CAT_ID": 66877, "ELEMENT_SET_NO": 999, "REV_AT_EPOCH": 123, "BSTAR": 0.0002423616, "MEAN_MOTION_DOT": 0.01188538, "MEAN_MOTION_DDOT": 7.424357e-06}, "tle": {"line1": "1 66877U 25282A   25345.64924139  .01188538  74244-5  24236-3 0  9990", "line2": "2 66877  56.9524  61.8427 0793171 218.0596 136.1784 14.56097159  1237"}}, "geometry": {"type": "Point", "coordinates": [39.08363692972006, -25.160060126256273]}}, {"type": "Feature", "properties": {"norad_id": 66906, "name": "1998-067XS", "group": "last-30-days", "lat": 36.67664678639188, "lon": -74.76903249392662, "alt_km": 409.42315290999886, "timestamp": "2025-12-12T22:42:11.308206+00:00", "meta": {"OBJECT_NAME": "1998-067XS", "OBJECT_ID": "1998-067XS", "EPOCH": "2025-12-11T19:50:50.396352", "MEAN_MOTION": 15.50491702, "ECCENTRICITY": 0.00036759, "INCLINATION": 51.6297, "RA_OF_ASC_NODE": 146.9447, "ARG_OF_PERICENTER": 198.3211, "MEAN_ANOMALY": 161.7647, "EPHEMERIS_TYPE": 0, "CLASSIFICATION_TYPE": "U", "NORAD_CAT_ID": 66906, "ELEMENT_SET_NO": 999, "REV_AT_EPOCH": 147, "BSTAR": 0.00060264305, "MEAN_MOTION_DOT": 0.00034698, "MEAN_MOTION_DDOT": 0}, "tle": {"line1": "1 66906U 98067XS  25345.82697218  .00034698  00000+0  60264-3 0  9999", "line2": "2 66906  51.6297 146.9447 0003675 198.3211 161.7647 15.50491702  1478"}}, "geometry": {"type": "Point", "coordinates": [-74.76903249392662, 36.67664678639188]}}, {"type": "Feature", "properties": {"norad_id": 66907, "name": "1998-067XT", "group": "last-30-days", "lat": 26.17659463023482, "lon": -61.563496105033295, "alt_km": 408.7071834625858, "timestamp": "2025-12-12T22:42:11.308215+00:00", "meta": {"OBJECT_NAME": "1998-067XT", "OBJECT_ID": "1998-067XT", "EPOCH": "2025-12-09T12:07:37.114752", "MEAN_MOTION": 15.50864429, "ECCENTRICITY": 0.00048036, "INCLINATION": 51.6307, "RA_OF_ASC_NODE": 158.4423, "ARG_OF_PERICENTER": 208.5081, "MEAN_ANOMALY": 151.5646, "EPHEMERIS_TYPE": 0, "CLASSIFICATION_TYPE": "U", "NORAD_CAT_ID": 66907, "ELEMENT_SET_NO": 999, "REV_AT_EPOCH": 111, "BSTAR": 0.0012921241, "MEAN_MOTION_DOT": 0.00076342, "MEAN_MOTION_DDOT": 0}, "tle": {"line1": "1 66907U 98067XT  25343.50529068  .00076342  00000+0  12921-2 0  9998", "line2": "2 66907  51.6307 158.4423 0004803 208.5081 151.5646 15.50864429  1113"}}, "geometry": {"type": "Point", "coordinates": [-61.563496105033295, 26.17659463023482]}}, {"type": "Feature", "properties": {"norad_id": 66908, "name": "1998-067XU", "group": "last-30-days", "lat": 24.484431565345947, "lon": -59.79412098032745, "alt_km": 408.6100774316774, "timestamp": "2025-12-12T22:42:11.308225+00:00", "meta": {"OBJECT_NAME": "1998-067XU", "OBJECT_ID": "1998-067XU", "EPOCH": "2025-12-11T19:47:12.664032", "MEAN_MOTION": 15.51346926, "ECCENTRICITY": 0.00046963, "INCLINATION": 51.6299, "RA_OF_ASC_NODE": 146.928, "ARG_OF_PERICENTER": 220.0254, "MEAN_ANOMALY": 140.039, "EPHEMERIS_TYPE": 0, "CLASSIFICATION_TYPE": "U", "NORAD_CAT_ID": 66908, "ELEMENT_SET_NO": 999, "REV_AT_EPOCH": 147, "BSTAR": 0.0013269788, "MEAN_MOTION_DOT": 0.00079814, "MEAN_MOTION_DDOT": 0}, "tle": {"line1": "1 66908U 98067XU  25345.82445213  .00079814  00000+0  13270-2 0  9990", "line2": "2 66908  51.6299 146.9280 0004696 220.0254 140.0390 15.51346926  1474"}}, "geometry": {"type": "Point", "coordinates": [-59.79412098032745, 24.484431565345947]}}, {"type": "Feature", "properties": {"norad_id": 66909, "name": "SILVERSAT", "group": "last-30-days", "lat": 22.905629828530103, "lon": -58.20706276311784, "alt_km": 408.55904201024714, "timestamp": "2025-12-12T22:42:11.308235+00:00", "meta": {"OBJECT_NAME": "SILVERSAT", "OBJECT_ID": "1998-067XV", "EPOCH": "2025-12-11T19:46:46.158240", "MEAN_MOTION": 15.51450033, "ECCENTRICITY": 0.00045562, "INCLINATION": 51.63, "RA_OF_ASC_NODE": 146.926, "ARG_OF_PERICENTER": 222.0234, "MEAN_ANOMALY": 138.0406, "EPHEMERIS_TYPE": 0, "CLASSIFICATION_TYPE": "U", "NORAD_CAT_ID": 66909, "ELEMENT_SET_NO": 999, "REV_AT_EPOCH": 147, "BSTAR": 0.0013718352, "MEAN_MOTION_DOT": 0.00082864, "MEAN_MOTION_DDOT": 0}, "tle": {"line1": "1 66909U 98067XV  25345.82414535  .00082864  00000+0  13718-2 0  9990", "line2": "2 66909  51.6300 146.9260 0004556 222.0234 138.0406 15.51450033  1471"}}, "geometry": {"type": "Point", "coordinates": [-58.20706276311784, 22.905629828530103]}}, {"type": "Feature", "properties": {"norad_id": 66910, "name": "1998-067XW", "group": "last-30-days", "lat": 16.560438336033496, "lon": -52.292266797414975, "alt_km": 407.58922974642246, "timestamp": "2025-12-12T22:42:11.308420+00:00", "meta": {"OBJECT_NAME": "1998-067XW", "OBJECT_ID": "1998-067XW", "EPOCH": "2025-12-12T00:22:58.433376", "MEAN_MOTION": 15.51622834, "ECCENTRICITY": 0.00053767, "INCLINATION": 51.6296, "RA_OF_ASC_NODE": 145.9572, "ARG_OF_PERICENTER": 204.7962, "MEAN_ANOMALY": 155.277, "EPHEMERIS_TYPE": 0, "CLASSIFICATION_TYPE": "U", "NORAD_CAT_ID": 66910, "ELEMENT_SET_NO": 999, "REV_AT_EPOCH": 150, "BSTAR": 0.0012086186, "MEAN_MOTION_DOT": 0.00073325, "MEAN_MOTION_DDOT": 0}, "tle": {"line1": "1 66910U 98067XW  25346.01595409  .00073325  00000+0  12086-2 0  9993", "line2": "2 66910  51.6296 145.9572 0005376 204.7962 155.2770 15.51622834  1507"}}, "geometry": {"type": "Point", "coordinates": [-52.292266797414975, 16.560438336033496]}}, {"type": "Feature", "properties": {"norad_id": 66911, "name": "1998-067XX", "group": "last-30-days", "lat": 13.332135153505293, "lon": -49.49570537386644, "alt_km": 407.34043765891056, "timestamp": "2025-12-12T22:42:11.308436+00:00", "meta": {"OBJECT_NAME": "1998-067XX", "OBJECT_ID": "1998-067XX", "EPOCH": "2025-12-12T03:27:33.883488", "MEAN_MOTION": 15.51877198, "ECCENTRICITY": 0.00050437, "INCLINATION": 51.6295, "RA_OF_ASC_NODE": 145.3134, "ARG_OF_PERICENTER": 206.7982, "MEAN_ANOMALY": 153.2747, "EPHEMERIS_TYPE": 0, "CLASSIFICATION_TYPE": "U", "NORAD_CAT_ID": 66911, "ELEMENT_SET_NO": 999, "REV_AT_EPOCH": 151, "BSTAR": 0.0015037661, "MEAN_MOTION_DOT": 0.00092403, "MEAN_MOTION_DDOT": 0}, "tle": {"line1": "1 66911U 98067XX  25346.14414217  .00092403  00000+0  15038-2 0  9993", "line2": "2 66911  51.6295 145.3134 0005043 206.7982 153.2747 15.51877198  1518"}}, "geometry": {"type": "Point", "coordinates": [-49.49570537386644, 13.332135153505293]}}, {"type": "Feature", "properties": {"norad_id": 66912, "name": "1998-067XY", "group": "last-30-days", "lat": 29.83416841298699, "lon": -65.65231998162587, "alt_km": 409.15109594923524, "timestamp": "2025-12-12T22:42:11.308446+00:00", "meta": {"OBJECT_NAME": "1998-067XY", "OBJECT_ID": "1998-067XY", "EPOCH": "2025-12-11T19:48:45.131904", "MEAN_MOTION": 15.51001955, "ECCENTRICITY": 0.00047052, "INCLINATION": 51.6304, "RA_OF_ASC_NODE": 146.936, "ARG_OF_PERICENTER": 217.5082, "MEAN_ANOMALY": 142.5579, "EPHEMERIS_TYPE": 0, "CLASSIFICATION_TYPE": "U", "NORAD_CAT_ID": 66912, "ELEMENT_SET_NO": 999, "REV_AT_EPOCH": 146, "BSTAR": 0.00099420433, "MEAN_MOTION_DOT": 0.0005879, "MEAN_MOTION_DDOT": 0}, "tle": {"line1": "1 66912U 98067XY  25345.82552236  .00058790  00000+0  99420-3 0  9991", "line2": "2 66912  51.6304 146.9360 0004705 217.5082 142.5579 15.51001955  1461"}}, "geometry": {"type": "Point", "coordinates": [-65.65231998162587, 29.83416841298699]}}]}